OBJECT_NAME,OBJECT_ID,EPOCH,MEAN_MOTION,ECCENTRICITY,INCLINATION,RA_OF_ASC_NODE,ARG_OF_PERICENTER,MEAN_ANOMALY,EPHEMERIS_TYPE,CLASSIFICATION_TYPE,NORAD_CAT_ID,ELEMENT_SET_NO,REV_AT_EPOCH,BSTAR,MEAN_MOTION_DOT,MEAN_MOTION_DDOT
SWARM A,2013-067B,2026-06-14T12:13:57.990144,15.50907710,.00030191,87.3334,57.2370,94.8387,265.3219,0,U,39452,999,70583,.1749433E-3,.10159E-3,0
SWARM C,2013-067C,2026-06-14T12:13:48.054144,15.50904993,.00030153,87.3333,55.8181,95.2617,264.8988,0,U,39453,999,70579,.17079294E-3,.9918E-4,0
BRITE-CA1 (TORONTO),2014-033L,2026-06-14T07:40:48.178848,14.72673070,.00772746,97.9735,294.3008,286.3637,72.9085,0,U,40020,999,64179,.10219606E-3,.628E-5,0
OCO 2,2014-035A,2026-06-14T14:45:10.615680,14.57109307,.00015019,98.2018,106.9469,86.3129,273.8241,0,U,40059,999,63567,.84564334E-4,.336E-5,0
BRITE-PL2 (HEWELIUSZ),2014-049B,2026-06-14T13:28:18.844608,14.94585543,.00152052,97.9095,277.5411,116.2621,244.0164,0,U,40119,999,64105,.13390095E-3,.1392E-4,0
MMS 1,2015-011A,2026-06-14T16:00:01.999584,0.28394820,.83215127,72.1554,348.8000,167.3320,41.5018,0,U,40482,999,139,0,-.534E-5,0
MMS 2,2015-011B,2026-06-14T16:00:01.999584,0.28391258,.83224692,72.1569,348.8014,167.3405,41.4809,0,U,40483,999,139,0,-.534E-5,0
MMS 3,2015-011C,2026-06-14T16:00:01.999584,0.28394831,.83214767,72.1587,348.8067,167.3321,41.4861,0,U,40484,999,139,0,-.534E-5,0
MMS 4,2015-011D,2026-06-14T16:00:01.999584,0.28394846,.83210853,72.1547,348.8025,167.3399,41.4746,0,U,40485,999,139,0,-.534E-5,0
ASTROSAT,2015-052A,2026-06-14T11:13:38.556768,14.82503124,.00079827,5.9956,174.9285,352.0417,7.9584,0,U,40930,999,57942,.9570847E-4,.1457E-4,0
DAMPE,2015-078A,2026-06-14T14:51:26.042688,15.30778717,.00138122,97.4552,171.0732,85.1432,275.1385,0,U,41173,999,58415,.37956718E-4,.1054E-4,0
PISAT,2016-059B,2026-06-14T13:20:05.082432,14.68979430,.00281648,97.8179,166.1215,211.4020,148.5506,0,U,41784,999,51935,.13644889E-3,.757E-5,0
HXMT (HUIYAN),2017-034A,2026-06-14T13:39:19.761408,15.18464729,.00303307,43.0126,197.6204,130.0289,230.3228,0,U,42758,999,49726,.15926382E-3,.3135E-4,0
FLYING LAPTOP,2017-042G,2026-06-14T14:03:38.432736,15.01131863,.00195264,97.4669,321.2187,130.2806,230.0129,0,U,42831,999,48606,.2942616E-3,.3726E-4,0
ZHANGHENG 1-01 (CSES-1),2018-015C,2026-06-14T15:19:44.738400,15.20782606,.00170295,97.6861,331.2455,276.0213,83.9081,0,U,43194,999,46425,.27901333E-3,.6098E-4,0
SALSAT,2020-068K,2026-06-14T12:41:54.564864,15.29765944,.0008235,97.8843,168.4319,319.4661,40.5964,0,U,46495,999,31495,.24454211E-3,.6973E-4,0
IXPE,2021-121A,2026-06-14T16:00:01.999584,15.10230937,.00074579,0.2309,336.6290,42.0260,210.7503,0,U,49954,999,579,.51630636E-3,.9629E-4,0
SMILE,2026-109A,2026-05-24T15:40:35.120928,14.57062785,.00091232,70.0007,229.2745,259.5159,100.4951,0,U,69123,999,80,-.42378883E-3,-.1976E-4,0
