SWARM A                 
1 39452U 13067B   26165.50969896  .00010159  00000+0  17494-3 0  9995
2 39452  87.3334  57.2370 0003019  94.8387 265.3219 15.50907710705835
SWARM C                 
1 39453U 13067C   26165.50958396  .00009918  00000+0  17079-3 0  9999
2 39453  87.3333  55.8181 0003015  95.2617 264.8988 15.50904993705798
BRITE-CA1 (TORONTO)     
1 40020U 14033L   26165.32000207  .00000628  00000+0  10220-3 0  9994
2 40020  97.9735 294.3008 0077274 286.3637  72.9085 14.72673070641791
OCO 2                   
1 40059U 14035A   26165.61470620  .00000336  00000+0  84564-4 0  9999
2 40059  98.2018 106.9469 0001501  86.3129 273.8241 14.57109307635670
BRITE-PL2 (HEWELIUSZ)   
1 40119U 14049B   26165.56132922  .00001392  00000+0  13390-3 0  9996
2 40119  97.9095 277.5411 0015205 116.2621 244.0164 14.94585543641050
MMS 1                   
1 40482U 15011A   26165.66668981 -.00000534  00000+0  00000+0 0  9997
2 40482  72.1554 348.8000 8321512 167.3320  41.5018  0.28394820  1399
MMS 2                   
1 40483U 15011B   26165.66668981 -.00000534  00000+0  00000+0 0  9998
2 40483  72.1569 348.8014 8322469 167.3405  41.4809  0.28391258  1396
MMS 3                   
1 40484U 15011C   26165.66668981 -.00000534  00000+0  00000+0 0  9999
2 40484  72.1587 348.8067 8321476 167.3321  41.4861  0.28394831  1397
MMS 4                   
1 40485U 15011D   26165.66668981 -.00000534  00000+0  00000+0 0  9990
2 40485  72.1547 348.8025 8321085 167.3399  41.4746  0.28394846  1397
ASTROSAT                
1 40930U 15052A   26165.46780737  .00001457  00000+0  95708-4 0  9990
2 40930   5.9956 174.9285 0007982 352.0417   7.9584 14.82503124579426
DAMPE                   
1 41173U 15078A   26165.61905142  .00001054  00000+0  37957-4 0  9999
2 41173  97.4552 171.0732 0013812  85.1432 275.1385 15.30778717584159
PISAT                   
1 41784U 16059B   26165.55561438  .00000757  00000+0  13645-3 0  9992
2 41784  97.8179 166.1215 0028164 211.4020 148.5506 14.68979430519353
HXMT (HUIYAN)           
1 42758U 17034A   26165.56897872  .00003135  00000+0  15926-3 0  9990
2 42758  43.0126 197.6204 0030330 130.0289 230.3228 15.18464729497260
FLYING LAPTOP           
1 42831U 17042G   26165.58586149  .00003726  00000+0  29426-3 0  9991
2 42831  97.4669 321.2187 0019526 130.2806 230.0129 15.01131863486068
ZHANGHENG 1-01 (CSES-1) 
1 43194U 18015C   26165.63871225  .00006098  00000+0  27901-3 0  9994
2 43194  97.6861 331.2455 0017029 276.0213  83.9081 15.20782606464250
SALSAT                  
1 46495U 20068K   26165.52910376  .00006973  00000+0  24454-3 0  9993
2 46495  97.8843 168.4319 0008235 319.4661  40.5964 15.29765944314951
IXPE                    
1 49954U 21121A   26165.66668981  .00009629  00000+0  51631-3 0  9992
2 49954   0.2309 336.6290 0007457  42.0260 210.7503 15.10230937  5793
SMILE                   
1 69123U 26109A   26144.65318427 -.00001976  00000+0 -42379-3 0  9994
2 69123  70.0007 229.2745 0009123 259.5159 100.4951 14.57062785   802
